{"type": "FeatureCollection", "features": [ {"type": "Feature", "properties": {"norad_id": 40938, "name": "BEIDOU-3S IGSO-2S (C56)", "group": "gnss", "lat": 31.763314614774043, "lon": -67.22054266200274, "alt_km": 35993.096082350974, "timestamp": "2025-12-24T07:45:06.443154+00:00", "meta": {"OBJECT_NAME": "BEIDOU-3S IGSO-2S (C56)", "OBJECT_ID": "2015-053A", "EPOCH": "2025-12-23T17:00:29.513952", "MEAN_MOTION": 1.00267867, "ECCENTRICITY": 0.00606419, "INCLINATION": 49.4936, "RA_OF_ASC_NODE": 260.877, "ARG_OF_PERICENTER": 188.6586, "MEAN_ANOMALY": 353.8857, "EPHEMERIS_TYPE": 0, "CLASSIFICATION_TYPE": "U", "NORAD_CAT_ID": 40938, "ELEMENT_SET_NO": 999, "REV_AT_EPOCH": 3759, "BSTAR": 0, "MEAN_MOTION_DOT": -1.09e-06, "MEAN_MOTION_DDOT": 0}, "tle": {"line1": "1 40938U 15053A   25357.70867493 -.00000109  00000+0  00000+0 0  9993", "line2": "2 40938  49.4936 260.8770 0060641 188.6586 353.8857  1.00267867 37590"}}, "geometry": {"type": "Point", "coordinates": [-67.22054266200274, 31.763314614774043]}}, {"type": "Feature", "properties": {"norad_id": 41019, "name": "GPS BIIF-11 (PRN 10)", "group": "gnss", "lat": 26.733815609038565, "lon": 56.788679277391516, "alt_km": 20459.79075119345, "timestamp": "2025-12-24T07:45:06.443166+00:00", "meta": {"OBJECT_NAME": "GPS BIIF-11 (PRN 10)", "OBJECT_ID": "2015-062A", "EPOCH": "2025-12-23T06:43:12.895968", "MEAN_MOTION": 2.00567181, "ECCENTRICITY": 0.01110751, "INCLINATION": 56.8398, "RA_OF_ASC_NODE": 37.5947, "ARG_OF_PERICENTER": 230.2304, "MEAN_ANOMALY": 128.8517, "EPHEMERIS_TYPE": 0, "CLASSIFICATION_TYPE": "U", "NORAD_CAT_ID": 41019, "ELEMENT_SET_NO": 999, "REV_AT_EPOCH": 7430, "BSTAR": 0, "MEAN_MOTION_DOT": -4.8e-07, "MEAN_MOTION_DDOT": 0}, "tle": {"line1": "1 41019U 15062A   25357.28001037 -.00000048  00000+0  00000+0 0  9993", "line2": "2 41019  56.8398  37.5947 0111075 230.2304 128.8517  2.00567181 74306"}}, "geometry": {"type": "Point", "coordinates": [56.788679277391516, 26.733815609038565]}}, {"type": "Feature", "properties": {"norad_id": 41028, "name": "GSAT-15 (GAGAN/PRN 139)", "group": "gnss", "lat": -0.008541023851454457, "lon": -57.093440602747854, "alt_km": 35781.585038260855, "timestamp": "2025-12-24T07:45:06.443180+00:00", "meta": {"OBJECT_NAME": "GSAT-15 (GAGAN/PRN 139)", "OBJECT_ID": "2015-065A", "EPOCH": "2025-12-23T22:08:15.190656", "MEAN_MOTION": 1.00271757, "ECCENTRICITY": 0.00023574, "INCLINATION": 0.0203, "RA_OF_ASC_NODE": 277.7756, "ARG_OF_PERICENTER": 322.0396, "MEAN_ANOMALY": 278.4655, "EPHEMERIS_TYPE": 0, "CLASSIFICATION_TYPE": "U", "NORAD_CAT_ID": 41028, "ELEMENT_SET_NO": 999, "REV_AT_EPOCH": 3704, "BSTAR": 0, "MEAN_MOTION_DOT": -2.37e-06, "MEAN_MOTION_DDOT": 0}, "tle": {"line1": "1 41028U 15065A   25357.92239804 -.00000237  00000+0  00000+0 0  9992", "line2": "2 41028   0.0203 277.7756 0002357 322.0396 278.4655  1.00271757 37046"}}, "geometry": {"type": "Point", "coordinates": [-57.093440602747854, -0.008541023851454457]}}, {"type": "Feature", "properties": {"norad_id": 41174, "name": "GSAT0209 (GALILEO 12)", "group": "gnss", "lat": 41.24315058540459, "lon": 142.73008347597585, "alt_km": 23214.602441994593, "timestamp": "2025-12-24T07:45:06.443203+00:00", "meta": {"OBJECT_NAME": "GSAT0209 (GALILEO 12)", "OBJECT_ID": "2015-079A", "EPOCH": "2025-12-21T21:22:17.332896", "MEAN_MOTION": 1.70474556, "ECCENTRICITY": 0.00025231, "INCLINATION": 55.7178, "RA_OF_ASC_NODE": 106.13, "ARG_OF_PERICENTER": 342.7574, "MEAN_ANOMALY": 17.2091, "EPHEMERIS_TYPE": 0, "CLASSIFICATION_TYPE": "U", "NORAD_CAT_ID": 41174, "ELEMENT_SET_NO": 999, "REV_AT_EPOCH": 6175, "BSTAR": 0, "MEAN_MOTION_DOT": 5e-08, "MEAN_MOTION_DDOT": 0}, "tle": {"line1": "1 41174U 15079A   25355.89047839  .00000005  00000+0  00000+0 0  9990", "line2": "2 41174  55.7178 106.1300 0002523 342.7574  17.2091  1.70474556 61755"}}, "geometry": {"type": "Point", "coordinates": [142.73008347597585, 41.24315058540459]}}, {"type": "Feature", "properties": {"norad_id": 41175, "name": "GSAT0208 (GALILEO 11)", "group": "gnss", "lat": -54.9790834157794, "lon": 29.65103218954506, "alt_km": 23226.56005641042, "timestamp": "2025-12-24T07:45:06.443216+00:00", "meta": {"OBJECT_NAME": "GSAT0208 (GALILEO 11)", "OBJECT_ID": "2015-079B", "EPOCH": "2025-12-23T06:48:42.697728", "MEAN_MOTION": 1.7047421, "ECCENTRICITY": 0.0001871, "INCLINATION": 55.7171, "RA_OF_ASC_NODE": 106.0888, "ARG_OF_PERICENTER": 351.9973, "MEAN_ANOMALY": 7.984, "EPHEMERIS_TYPE": 0, "CLASSIFICATION_TYPE": "U", "NORAD_CAT_ID": 41175, "ELEMENT_SET_NO": 999, "REV_AT_EPOCH": 6219, "BSTAR": 0, "MEAN_MOTION_DOT": 1.1e-07, "MEAN_MOTION_DDOT": 0}, "tle": {"line1": "1 41175U 15079B   25357.28382752  .00000011  00000+0  00000+0 0  9999", "line2": "2 41175  55.7171 106.0888 0001871 351.9973   7.9840  1.70474210 62193"}}, "geometry": {"type": "Point", "coordinates": [29.65103218954506, -54.9790834157794]}}, {"type": "Feature", "properties": {"norad_id": 41241, "name": "IRNSS-1E", "group": "gnss", "lat": -32.194195659077124, "lon": -40.736503721264604, "alt_km": 35759.58026586416, "timestamp": "2025-12-24T07:45:06.443228+00:00", "meta": {"OBJECT_NAME": "IRNSS-1E", "OBJECT_ID": "2016-003A", "EPOCH": "2025-12-23T15:49:14.018592", "MEAN_MOTION": 1.0026902, "ECCENTRICITY": 0.0021565, "INCLINATION": 32.8492, "RA_OF_ASC_NODE": 62.2938, "ARG_OF_PERICENTER": 188.8816, "MEAN_ANOMALY": 190.2765, "EPHEMERIS_TYPE": 0, "CLASSIFICATION_TYPE": "U", "NORAD_CAT_ID": 41241, "ELEMENT_SET_NO": 999, "REV_AT_EPOCH": 3632, "BSTAR": 0, "MEAN_MOTION_DOT": -2.93e-06, "MEAN_MOTION_DDOT": 0}, "tle": {"line1": "1 41241U 16003A   25357.65919003 -.00000293  00000+0  00000+0 0  9990", "line2": "2 41241  32.8492  62.2938 0021565 188.8816 190.2765  1.00269020 36325"}}, "geometry": {"type": "Point", "coordinates": [-40.736503721264604, -32.194195659077124]}}, {"type": "Feature", "properties": {"norad_id": 41328, "name": "GPS BIIF-12 (PRN 32)", "group": "gnss", "lat": -21.63275930164641, "lon": 80.5449505268277, "alt_km": 20181.67292792883, "timestamp": "2025-12-24T07:45:06.443239+00:00", "meta": {"OBJECT_NAME": "GPS BIIF-12 (PRN 32)", "OBJECT_ID": "2016-007A", "EPOCH": "2025-12-21T20:48:30.607488", "MEAN_MOTION": 2.00560245, "ECCENTRICITY": 0.00926349, "INCLINATION": 55.4111, "RA_OF_ASC_NODE": 96.4948, "ARG_OF_PERICENTER": 243.8067, "MEAN_ANOMALY": 115.2397, "EPHEMERIS_TYPE": 0, "CLASSIFICATION_TYPE": "U", "NORAD_CAT_ID": 41328, "ELEMENT_SET_NO": 999, "REV_AT_EPOCH": 7228, "BSTAR": 0, "MEAN_MOTION_DOT": -3e-08, "MEAN_MOTION_DDOT": 0}, "tle": {"line1": "1 41328U 16007A   25355.86702092 -.00000003  00000+0  00000+0 0  9998", "line2": "2 41328  55.4111  96.4948 0092634 243.8067 115.2397  2.00560245 72282"}}, "geometry": {"type": "Point", "coordinates": [80.5449505268277, -21.63275930164641]}}, {"type": "Feature", "properties": {"norad_id": 41330, "name": "COSMOS 2514 (751)", "group": "gnss", "lat": 48.06645279790186, "lon": -9.941723759415881, "alt_km": 19153.030448308255, "timestamp": "2025-12-24T07:45:06.443251+00:00", "meta": {"OBJECT_NAME": "COSMOS 2514 (751)", "OBJECT_ID": "2016-008A", "EPOCH": "2025-12-23T07:30:02.526336", "MEAN_MOTION": 2.13102643, "ECCENTRICITY": 0.00116567, "INCLINATION": 65.1277, "RA_OF_ASC_NODE": 319.0421, "ARG_OF_PERICENTER": 220.1052, "MEAN_ANOMALY": 139.8073, "EPHEMERIS_TYPE": 0, "CLASSIFICATION_TYPE": "U", "NORAD_CAT_ID": 41330, "ELEMENT_SET_NO": 999, "REV_AT_EPOCH": 7687, "BSTAR": 0, "MEAN_MOTION_DOT": -3.6e-07, "MEAN_MOTION_DDOT": 0}, "tle": {"line1": "1 41330U 16008A   25357.31252924 -.00000036  00000+0  00000+0 0  9994", "line2": "2 41330  65.1277 319.0421 0011656 220.1052 139.8073  2.13102643 76873"}}, "geometry": {"type": "Point", "coordinates": [-9.941723759415881, 48.06645279790186]}}, {"type": "Feature", "properties": {"norad_id": 41384, "name": "IRNSS-1F", "group": "gnss", "lat": 3.0921582495246156, "lon": -118.17909167131413, "alt_km": 35711.75274683116, "timestamp": "2025-12-24T07:45:06.443262+00:00", "meta": {"OBJECT_NAME": "IRNSS-1F", "OBJECT_ID": "2016-015A", "EPOCH": "2025-12-23T21:50:46.864032", "MEAN_MOTION": 1.0027804, "ECCENTRICITY": 0.00226618, "INCLINATION": 4.9091, "RA_OF_ASC_NODE": 101.0216, "ARG_OF_PERICENTER": 182.1158, "MEAN_ANOMALY": 169.7535, "EPHEMERIS_TYPE": 0, "CLASSIFICATION_TYPE": "U", "NORAD_CAT_ID": 41384, "ELEMENT_SET_NO": 999, "REV_AT_EPOCH": 3590, "BSTAR": 0, "MEAN_MOTION_DOT": 1.77e-06, "MEAN_MOTION_DDOT": 0}, "tle": {"line1": "1 41384U 16015A   25357.91026463  .00000177  00000+0  00000+0 0  9999", "line2": "2 41384   4.9091 101.0216 0022661 182.1158 169.7535  1.00278040 35904"}}, "geometry": {"type": "Point", "coordinates": [-118.17909167131413, 3.0921582495246156]}}, {"type": "Feature", "properties": {"norad_id": 41434, "name": "BEIDOU-2 IGSO-6 (C13)", "group": "gnss", "lat": -59.346682558901946, "lon": -62.978425497925954, "alt_km": 35570.70704179173, "timestamp": "2025-12-24T07:45:06.443277+00:00", "meta": {"OBJECT_NAME": "BEIDOU-2 IGSO-6 (C13)", "OBJECT_ID": "2016-021A", "EPOCH": "2025-12-18T14:33:38.837664", "MEAN_MOTION": 1.00292299, "ECCENTRICITY": 0.00610054, "INCLINATION": 59.9732, "RA_OF_ASC_NODE": 39.8392, "ARG_OF_PERICENTER": 230.2031, "MEAN_ANOMALY": 129.1398, "EPHEMERIS_TYPE": 0, "CLASSIFICATION_TYPE": "U", "NORAD_CAT_ID": 41434, "ELEMENT_SET_NO": 999, "REV_AT_EPOCH": 3566, "BSTAR": 0, "MEAN_MOTION_DOT": -1.41e-06, "MEAN_MOTION_DDOT": 0}, "tle": {"line1": "1 41434U 16021A   25352.60669951 -.00000141  00000+0  00000+0 0  9990", "line2": "2 41434  59.9732  39.8392 0061005 230.2031 129.1398  1.00292299 35667"}}, "geometry": {"type": "Point", "coordinates": [-62.978425497925954, -59.346682558901946]}}]}